[{"OBJECT_NAME":"GHGSAT-C5","OBJECT_ID":"2022-057N","EPOCH":"2026-03-09T21:50:12.501024","MEAN_MOTION":15.32921902,"ECCENTRICITY":0.00082696,"INCLINATION":97.6522,"RA_OF_ASC_NODE":212.4963,"ARG_OF_PERICENTER":109.8004,"MEAN_ANOMALY":250.413,"EPHEMERIS_TYPE":0,"CLASSIFICATION_TYPE":"U","NORAD_CAT_ID":52744,"ELEMENT_SET_NO":999,"REV_AT_EPOCH":21032,"BSTAR":0.00029214604,"MEAN_MOTION_DOT":9.218e-5,"MEAN_MOTION_DDOT":0},{"OBJECT_NAME":"STARLINK-35546","OBJECT_ID":"2025-245G","EPOCH":"2026-03-09T21:54:52.755840","MEAN_MOTION":15.30209336,"ECCENTRICITY":0.00010519,"INCLINATION":53.1595,"RA_OF_ASC_NODE":282.6512,"ARG_OF_PERICENTER":90.5564,"MEAN_ANOMALY":269.5557,"EPHEMERIS_TYPE":0,"CLASSIFICATION_TYPE":"U","NORAD_CAT_ID":66240,"ELEMENT_SET_NO":999,"REV_AT_EPOCH":2129,"BSTAR":0.00091944327,"MEAN_MOTION_DOT":0.00026979,"MEAN_MOTION_DDOT":0}]
